{
  "type": "FeatureCollection",
  "features": [
    {
      "type": "Feature",
      "properties": {
        "norad_id": 38857,
        "name": "GSAT0103 (GALILEO-FM3)",
        "group": "gnss",
        "lat": -3.928317007531954,
        "lon": 104.24347814787238,
        "alt_km": 23222.871293364267,
        "timestamp": "2025-12-02T08:59:32.956472+00:00",
        "meta_object_name": "GSAT0103 (GALILEO-FM3)",
        "meta_object_id": "2012-055A",
        "meta_epoch": "2025-11-28T20:42:38.723616",
        "meta_mean_motion": 1.70473322,
        "meta_eccentricity": 0.00022412,
        "meta_inclination": 55.6842,
        "meta_ra_of_asc_node": 107.0477,
        "meta_arg_of_pericenter": 266.7022,
        "meta_mean_anomaly": 93.2527,
        "meta_ephemeris_type": 0,
        "meta_classification_type": "U",
        "meta_norad_cat_id": 38857,
        "meta_element_set_no": 999,
        "meta_rev_at_epoch": 8159,
        "meta_bstar": 0,
        "meta_mean_motion_dot": 5.5e-07,
        "meta_mean_motion_ddot": 0,
        "tle_line1": "1 38857U 12055A   25332.86294819  .00000055  00000+0  00000+0 0  9994",
        "tle_line2": "2 38857  55.6842 107.0477 0002241 266.7022  93.2527  1.70473322 81593"
      },
      "geometry": {
        "type": "Point",
        "coordinates": [
          104.24347814787238,
          -3.928317007531954
        ]
      }
    },
    {
      "type": "Feature",
      "properties": {
        "norad_id": 38953,
        "name": "BEIDOU-2 G6 (C02)",
        "group": "gnss",
        "lat": -2.243700071868335,
        "lon": -69.74580910509904,
        "alt_km": 35779.331301932325,
        "timestamp": "2025-12-02T08:59:32.956485+00:00",
        "meta_object_name": "BEIDOU-2 G6 (C02)",
        "meta_object_id": "2012-059A",
        "meta_epoch": "2025-12-02T03:54:44.266176",
        "meta_mean_motion": 1.0027097,
        "meta_eccentricity": 0.0007292,
        "meta_inclination": 3.9201,
        "meta_ra_of_asc_node": 75.6056,
        "meta_arg_of_pericenter": 290.7249,
        "meta_mean_anomaly": 207.6781,
        "meta_ephemeris_type": 0,
        "meta_classification_type": "U",
        "meta_norad_cat_id": 38953,
        "meta_element_set_no": 999,
        "meta_rev_at_epoch": 4793,
        "meta_bstar": 0,
        "meta_mean_motion_dot": -1.56e-06,
        "meta_mean_motion_ddot": 0,
        "tle_line1": "1 38953U 12059A   25336.16301234 -.00000156  00000+0  00000+0 0  9995",
        "tle_line2": "2 38953   3.9201  75.6056 0007292 290.7249 207.6781  1.00270970 47937"
      },
      "geometry": {
        "type": "Point",
        "coordinates": [
          -69.74580910509904,
          -2.243700071868335
        ]
      }
    },
    {
      "type": "Feature",
      "properties": {
        "norad_id": 38977,
        "name": "LUCH 5B (SDCM/PRN 125)",
        "group": "gnss",
        "lat": 6.682723708554509,
        "lon": -169.64244641350544,
        "alt_km": 35765.55793533075,
        "timestamp": "2025-12-02T08:59:32.956497+00:00",
        "meta_object_name": "LUCH 5B (SDCM/PRN 125)",
        "meta_object_id": "2012-061A",
        "meta_epoch": "2025-12-02T00:00:34.725024",
        "meta_mean_motion": 1.00269053,
        "meta_eccentricity": 0.0007598,
        "meta_inclination": 10.0566,
        "meta_ra_of_asc_node": 51.8026,
        "meta_arg_of_pericenter": 188.6334,
        "meta_mean_anomaly": 174.4538,
        "meta_ephemeris_type": 0,
        "meta_classification_type": "U",
        "meta_norad_cat_id": 38977,
        "meta_element_set_no": 999,
        "meta_rev_at_epoch": 4763,
        "meta_bstar": 0,
        "meta_mean_motion_dot": -1.23e-06,
        "meta_mean_motion_ddot": 0,
        "tle_line1": "1 38977U 12061A   25336.00040191 -.00000123  00000+0  00000+0 0  9993",
        "tle_line2": "2 38977  10.0566  51.8026 0007598 188.6334 174.4538  1.00269053 47636"
      },
      "geometry": {
        "type": "Point",
        "coordinates": [
          -169.64244641350544,
          6.682723708554509
        ]
      }
    },
    {
      "type": "Feature",
      "properties": {
        "norad_id": 39155,
        "name": "COSMOS 2485 (747)",
        "group": "gnss",
        "lat": 54.96327182979494,
        "lon": 121.15083505870835,
        "alt_km": 19183.07969748303,
        "timestamp": "2025-12-02T08:59:32.956508+00:00",
        "meta_object_name": "COSMOS 2485 (747)",
        "meta_object_id": "2013-019A",
        "meta_epoch": "2025-11-24T07:30:54.982368",
        "meta_mean_motion": 2.13103115,
        "meta_eccentricity": 0.0024274,
        "meta_inclination": 65.3036,
        "meta_ra_of_asc_node": 80.4871,
        "meta_arg_of_pericenter": 228.0776,
        "meta_mean_anomaly": 131.7167,
        "meta_ephemeris_type": 0,
        "meta_classification_type": "U",
        "meta_norad_cat_id": 39155,
        "meta_element_set_no": 999,
        "meta_rev_at_epoch": 9791,
        "meta_bstar": 0,
        "meta_mean_motion_dot": 1.2e-07,
        "meta_mean_motion_ddot": 0,
        "tle_line1": "1 39155U 13019A   25328.31313637  .00000012  00000+0  00000+0 0  9995",
        "tle_line2": "2 39155  65.3036  80.4871 0024274 228.0776 131.7167  2.13103115 97916"
      },
      "geometry": {
        "type": "Point",
        "coordinates": [
          121.15083505870835,
          54.96327182979494
        ]
      }
    },
    {
      "type": "Feature",
      "properties": {
        "norad_id": 39166,
        "name": "GPS BIIF-4  (PRN 27)",
        "group": "gnss",
        "lat": 54.243080706265864,
        "lon": 17.178345644665296,
        "alt_km": 19926.902998466576,
        "timestamp": "2025-12-02T08:59:32.956519+00:00",
        "meta_object_name": "GPS BIIF-4  (PRN 27)",
        "meta_object_id": "2013-023A",
        "meta_epoch": "2025-12-01T05:56:59.182080",
        "meta_mean_motion": 2.00565069,
        "meta_eccentricity": 0.0137184,
        "meta_inclination": 54.6621,
        "meta_ra_of_asc_node": 277.0355,
        "meta_arg_of_pericenter": 48.4883,
        "meta_mean_anomaly": 312.6776,
        "meta_ephemeris_type": 0,
        "meta_classification_type": "U",
        "meta_norad_cat_id": 39166,
        "meta_element_set_no": 999,
        "meta_rev_at_epoch": 9191,
        "meta_bstar": 0,
        "meta_mean_motion_dot": -4e-07,
        "meta_mean_motion_ddot": 0,
        "tle_line1": "1 39166U 13023A   25335.24790720 -.00000040  00000+0  00000+0 0  9996",
        "tle_line2": "2 39166  54.6621 277.0355 0137184  48.4883 312.6776  2.00565069 91914"
      },
      "geometry": {
        "type": "Point",
        "coordinates": [
          17.178345644665296,
          54.243080706265864
        ]
      }
    },
    {
      "type": "Feature",
      "properties": {
        "norad_id": 39199,
        "name": "IRNSS-1A",
        "group": "gnss",
        "lat": -8.55100554434286,
        "lon": -101.06686741960341,
        "alt_km": 35694.76104232945,
        "timestamp": "2025-12-02T08:59:32.956531+00:00",
        "meta_object_name": "IRNSS-1A",
        "meta_object_id": "2013-034A",
        "meta_epoch": "2025-11-29T20:16:50.456352",
        "meta_mean_motion": 1.00278191,
        "meta_eccentricity": 0.00217208,
        "meta_inclination": 35.2795,
        "meta_ra_of_asc_node": 66.7394,
        "meta_arg_of_pericenter": 185.4975,
        "meta_mean_anomaly": 176.0627,
        "meta_ephemeris_type": 0,
        "meta_classification_type": "U",
        "meta_norad_cat_id": 39199,
        "meta_element_set_no": 999,
        "meta_rev_at_epoch": 4537,
        "meta_bstar": 0,
        "meta_mean_motion_dot": 8.1e-07,
        "meta_mean_motion_ddot": 0,
        "tle_line1": "1 39199U 13034A   25333.84502843  .00000081  00000+0  00000+0 0  9999",
        "tle_line2": "2 39199  35.2795  66.7394 0021720 185.4975 176.0627  1.00278191 45377"
      },
      "geometry": {
        "type": "Point",
        "coordinates": [
          -101.06686741960341,
          -8.55100554434286
        ]
      }
    },
    {
      "type": "Feature",
      "properties": {
        "norad_id": 39533,
        "name": "GPS BIIF-5  (PRN 30)",
        "group": "gnss",
        "lat": 53.15023273500104,
        "lon": -102.32399208025669,
        "alt_km": 20309.598249108796,
        "timestamp": "2025-12-02T08:59:32.956542+00:00",
        "meta_object_name": "GPS BIIF-5  (PRN 30)",
        "meta_object_id": "2014-008A",
        "meta_epoch": "2025-12-01T17:47:12.743808",
        "meta_mean_motion": 2.00573724,
        "meta_eccentricity": 0.0078939,
        "meta_inclination": 53.6295,
        "meta_ra_of_asc_node": 157.3734,
        "meta_arg_of_pericenter": 226.3523,
        "meta_mean_anomaly": 133.0365,
        "meta_ephemeris_type": 0,
        "meta_classification_type": "U",
        "meta_norad_cat_id": 39533,
        "meta_element_set_no": 999,
        "meta_rev_at_epoch": 8572,
        "meta_bstar": 0,
        "meta_mean_motion_dot": 1.22e-06,
        "meta_mean_motion_ddot": 0,
        "tle_line1": "1 39533U 14008A   25335.74111972  .00000122  00000+0  00000+0 0  9999",
        "tle_line2": "2 39533  53.6295 157.3734 0078939 226.3523 133.0365  2.00573724 85727"
      },
      "geometry": {
        "type": "Point",
        "coordinates": [
          -102.32399208025669,
          53.15023273500104
        ]
      }
    }
  ]
}